start=new Date('2022-04-22T00:00:00.000Z').valueOf();
sats=[{"GP_ID":"201774237","FILE":"3410450","MEAN_MOTION":"15.06402043","ELEMENT_SET_NO":"999","REF_FRAME":"TEME","OBJECT_TYPE":"PAYLOAD","MEAN_ANOMALY":"308.7210","BSTAR":"0.00000234040000","DECAY_DATE":null,"NORAD_CAT_ID":"47836","CLASSIFICATION_TYPE":"U","PERIAPSIS":"545.945","ARG_OF_PERICENTER":"51.3942","APOAPSIS":"548.469","MEAN_ELEMENT_THEORY":"SGP4","TLE_LINE2":"2 47836  53.0540 137.7891 0001822  51.3942 308.7210 15.06402043 62857","COUNTRY_CODE":"US","TLE_LINE1":"1 47836U 21018BB  22111.57525602 -.00000247  00000-0  23404-5 0  9991","OBJECT_NAME":"STARLINK-2426","LAUNCH_DATE":"2021-03-11","MEAN_MOTION_DOT":"-0.00000247","RA_OF_ASC_NODE":"137.7891","EPHEMERIS_TYPE":"0","TIME_SYSTEM":"UTC","REV_AT_EPOCH":"6285","EPOCH":"2022-04-21T13:48:22.120128","RCS_SIZE":"LARGE","INCLINATION":"53.0540","ECCENTRICITY":"0.00018220","SITE":"AFETR","PERIOD":"95.592","CENTER_NAME":"EARTH","MEAN_MOTION_DDOT":"0.0000000000000","OBJECT_ID":"2021-018BB","SEMIMAJOR_AXIS":"6925.342"},{"MEAN_ELEMENT_THEORY":"SGP4","OBJECT_NAME":"STARLINK-2427","TLE_LINE1":"1 47837U 21018BC  22111.52644734 -.00000956  00000-0 -45236-4 0  9999","TLE_LINE2":"2 47837  53.0531 118.0074 0002136  40.1033 320.0113 15.06405038 63137","COUNTRY_CODE":"US","DECAY_DATE":null,"NORAD_CAT_ID":"47837","CLASSIFICATION_TYPE":"U","APOAPSIS":"548.677","ARG_OF_PERICENTER":"40.1033","PERIAPSIS":"545.719","ELEMENT_SET_NO":"999","MEAN_MOTION":"15.06405038","FILE":"3410449","BSTAR":"-0.00004523600000","OBJECT_TYPE":"PAYLOAD","MEAN_ANOMALY":"320.0113","REF_FRAME":"TEME","GP_ID":"201749122","SEMIMAJOR_AXIS":"6925.333","OBJECT_ID":"2021-018BC","MEAN_MOTION_DDOT":"0.0000000000000","CENTER_NAME":"EARTH","ECCENTRICITY":"0.00021360","INCLINATION":"53.0531","PERIOD":"95.592","SITE":"AFETR","REV_AT_EPOCH":"6313","EPHEMERIS_TYPE":"0","TIME_SYSTEM":"UTC","RCS_SIZE":"LARGE","EPOCH":"2022-04-21T12:38:05.050176","MEAN_MOTION_DOT":"-0.00000956","LAUNCH_DATE":"2021-03-11","RA_OF_ASC_NODE":"118.0074"},{"ECCENTRICITY":"0.00019950","INCLINATION":"53.0541","PERIOD":"95.592","SITE":"AFETR","SEMIMAJOR_AXIS":"6925.327","OBJECT_ID":"2021-018BD","CENTER_NAME":"EARTH","MEAN_MOTION_DDOT":"0.0000000000000","MEAN_MOTION_DOT":"0.00001884","LAUNCH_DATE":"2021-03-11","RA_OF_ASC_NODE":"137.9452","REV_AT_EPOCH":"6284","EPHEMERIS_TYPE":"0","TIME_SYSTEM":"UTC","RCS_SIZE":"LARGE","EPOCH":"2022-04-21T12:56:39.660288","NORAD_CAT_ID":"47838","DECAY_DATE":null,"CLASSIFICATION_TYPE":"U","APOAPSIS":"548.574","PERIAPSIS":"545.811","ARG_OF_PERICENTER":"42.9711","MEAN_ELEMENT_THEORY":"SGP4","OBJECT_NAME":"STARLINK-2429","TLE_LINE2":"2 47838  53.0541 137.9452 0001995  42.9711 317.1433 15.06406957 62844","COUNTRY_CODE":"US","TLE_LINE1":"1 47838U 21018BD  22111.53934792  .00001884  00000-0  14531-3 0  9999","GP_ID":"201749869","ELEMENT_SET_NO":"999","FILE":"3410449","MEAN_MOTION":"15.06406957","BSTAR":"0.00014531000000","MEAN_ANOMALY":"317.1433","OBJECT_TYPE":"PAYLOAD","REF_FRAME":"TEME"},{"RCS_SIZE":"LARGE","EPOCH":"2022-04-21T19:59:56.899680","REV_AT_EPOCH":"6332","EPHEMERIS_TYPE":"0","TIME_SYSTEM":"UTC","RA_OF_ASC_NODE":"106.6099","MEAN_MOTION_DOT":"0.00000879","LAUNCH_DATE":"2021-03-11","SEMIMAJOR_AXIS":"6925.352","OBJECT_ID":"2021-018BE","MEAN_MOTION_DDOT":"0.0000000000000","CENTER_NAME":"EARTH","PERIOD":"95.592","SITE":"AFETR","ECCENTRICITY":"0.00018090","INCLINATION":"53.0537","BSTAR":"0.00007793000000","MEAN_ANOMALY":"303.3140","OBJECT_TYPE":"PAYLOAD","REF_FRAME":"TEME","ELEMENT_SET_NO":"999","MEAN_MOTION":"15.06398968","FILE":"3410450","GP_ID":"201775484","OBJECT_NAME":"STARLINK-2431","TLE_LINE1":"1 47839U 21018BE  22111.83329745  .00000879  00000-0  77930-4 0  9995","COUNTRY_CODE":"US","TLE_LINE2":"2 47839  53.0537 106.6099 0001809  56.8022 303.3140 15.06398968 63321","MEAN_ELEMENT_THEORY":"SGP4","APOAPSIS":"548.470","ARG_OF_PERICENTER":"56.8022","PERIAPSIS":"545.964","DECAY_DATE":null,"CLASSIFICATION_TYPE":"U","NORAD_CAT_ID":"47839"},{"TIME_SYSTEM":"UTC","EPHEMERIS_TYPE":"0","REV_AT_EPOCH":"6281","EPOCH":"2022-04-21T17:03:28.198656","RCS_SIZE":"LARGE","LAUNCH_DATE":"2021-03-11","MEAN_MOTION_DOT":"-0.00000051","RA_OF_ASC_NODE":"117.1751","CENTER_NAME":"EARTH","MEAN_MOTION_DDOT":"0.0000000000000","OBJECT_ID":"2021-018BF","SEMIMAJOR_AXIS":"6925.370","INCLINATION":"53.0550","ECCENTRICITY":"0.00020640","SITE":"AFETR","PERIOD":"95.593","MEAN_MOTION":"15.06393143","FILE":"3410450","ELEMENT_SET_NO":"999","OBJECT_TYPE":"PAYLOAD","REF_FRAME":"TEME","MEAN_ANOMALY":"307.9433","BSTAR":"0.00001550100000","GP_ID":"201774738","MEAN_ELEMENT_THEORY":"SGP4","TLE_LINE2":"2 47840  53.0550 117.1751 0002064  52.1742 307.9433 15.06393143 62810","COUNTRY_CODE":"US","TLE_LINE1":"1 47840U 21018BF  22111.71074304 -.00000051  00000-0  15501-4 0  9991","OBJECT_NAME":"STARLINK-2432","DECAY_DATE":null,"CLASSIFICATION_TYPE":"U","NORAD_CAT_ID":"47840","PERIAPSIS":"545.805","ARG_OF_PERICENTER":"52.1742","APOAPSIS":"548.664"},{"EPHEMERIS_TYPE":"0","TIME_SYSTEM":"UTC","REV_AT_EPOCH":"6281","EPOCH":"2022-04-21T16:58:08.915232","RCS_SIZE":"LARGE","LAUNCH_DATE":"2021-03-11","MEAN_MOTION_DOT":"0.00000635","RA_OF_ASC_NODE":"117.1884","CENTER_NAME":"EARTH","MEAN_MOTION_DDOT":"0.0000000000000","SEMIMAJOR_AXIS":"6925.345","OBJECT_ID":"2021-018BG","INCLINATION":"53.0550","ECCENTRICITY":"0.00016060","SITE":"AFETR","PERIOD":"95.592","MEAN_MOTION":"15.06401255","FILE":"3410450","ELEMENT_SET_NO":"999","OBJECT_TYPE":"PAYLOAD","REF_FRAME":"TEME","MEAN_ANOMALY":"294.5592","BSTAR":"0.00006154900000","GP_ID":"201774988","MEAN_ELEMENT_THEORY":"SGP4","COUNTRY_CODE":"US","TLE_LINE2":"2 47841  53.0550 117.1884 0001606  65.5564 294.5592 15.06401255 62810","TLE_LINE1":"1 47841U 21018BG  22111.70704763  .00000635  00000-0  61549-4 0  9990","OBJECT_NAME":"STARLINK-2433","DECAY_DATE":null,"NORAD_CAT_ID":"47841","CLASSIFICATION_TYPE":"U","PERIAPSIS":"546.098","ARG_OF_PERICENTER":"65.5564","APOAPSIS":"548.322"},{"OBJECT_ID":"2021-018BH","SEMIMAJOR_AXIS":"6925.327","CENTER_NAME":"EARTH","MEAN_MOTION_DDOT":"0.0000000000000","ECCENTRICITY":"0.00020680","INCLINATION":"53.0526","PERIOD":"95.592","SITE":"AFETR","REV_AT_EPOCH":"6273","TIME_SYSTEM":"UTC","EPHEMERIS_TYPE":"0","RCS_SIZE":"LARGE","EPOCH":"2022-04-21T08:40:33.791808","MEAN_MOTION_DOT":"-0.00000332","LAUNCH_DATE":"2021-03-11","RA_OF_ASC_NODE":"148.7433","MEAN_ELEMENT_THEORY":"SGP4","OBJECT_NAME":"STARLINK-2434","COUNTRY_CODE":"US","TLE_LINE2":"2 47842  53.0526 148.7433 0002068  43.3448 316.7703 15.06407026 62736","TLE_LINE1":"1 47842U 21018BH  22111.36150222 -.00000332  00000-0 -33431-5 0  9994","NORAD_CAT_ID":"47842","DECAY_DATE":null,"CLASSIFICATION_TYPE":"U","APOAPSIS":"548.624","PERIAPSIS":"545.760","ARG_OF_PERICENTER":"43.3448","ELEMENT_SET_NO":"999","FILE":"3410449","MEAN_MOTION":"15.06407026","BSTAR":"-0.00000334310000","MEAN_ANOMALY":"316.7703","OBJECT_TYPE":"PAYLOAD","REF_FRAME":"TEME","GP_ID":"201749369"},{"MEAN_MOTION_DDOT":"0.0000000000000","CENTER_NAME":"EARTH","OBJECT_ID":"2021-018BJ","SEMIMAJOR_AXIS":"6925.325","SITE":"AFETR","PERIOD":"95.592","INCLINATION":"53.0534","ECCENTRICITY":"0.00021030","EPOCH":"2022-04-21T14:23:34.515456","RCS_SIZE":"LARGE","EPHEMERIS_TYPE":"0","TIME_SYSTEM":"UTC","REV_AT_EPOCH":"6245","RA_OF_ASC_NODE":"142.6826","LAUNCH_DATE":"2021-03-11","MEAN_MOTION_DOT":"-0.00000071","TLE_LINE1":"1 47843U 21018BJ  22111.59970504 -.00000071  00000-0  14169-4 0  9998","COUNTRY_CODE":"US","TLE_LINE2":"2 47843  53.0534 142.6826 0002103  37.7026 322.4110 15.06407839 62451","OBJECT_NAME":"STARLINK-2435","MEAN_ELEMENT_THEORY":"SGP4","ARG_OF_PERICENTER":"37.7026","PERIAPSIS":"545.733","APOAPSIS":"548.646","DECAY_DATE":null,"CLASSIFICATION_TYPE":"U","NORAD_CAT_ID":"47843","OBJECT_TYPE":"PAYLOAD","REF_FRAME":"TEME","MEAN_ANOMALY":"322.4110","BSTAR":"0.00001416900000","MEAN_MOTION":"15.06407839","FILE":"3410450","ELEMENT_SET_NO":"999","GP_ID":"201775985"},{"SITE":"AFETR","PERIOD":"95.591","INCLINATION":"53.0543","ECCENTRICITY":"0.00017470","CENTER_NAME":"EARTH","MEAN_MOTION_DDOT":"0.0000000000000","OBJECT_ID":"2021-018BK","SEMIMAJOR_AXIS":"6925.300","RA_OF_ASC_NODE":"138.5811","LAUNCH_DATE":"2021-03-11","MEAN_MOTION_DOT":"0.00000620","EPOCH":"2022-04-21T09:34:58.111680","RCS_SIZE":"LARGE","EPHEMERIS_TYPE":"0","TIME_SYSTEM":"UTC","REV_AT_EPOCH":"6282","PERIAPSIS":"545.955","ARG_OF_PERICENTER":"49.7227","APOAPSIS":"548.374","DECAY_DATE":null,"NORAD_CAT_ID":"47844","CLASSIFICATION_TYPE":"U","COUNTRY_CODE":"US","TLE_LINE2":"2 47844  53.0543 138.5811 0001747  49.7227 310.3915 15.06415967 62820","TLE_LINE1":"1 47844U 21018BK  22111.39928370  .00000620  00000-0  60479-4 0  9995","OBJECT_NAME":"STARLINK-2446","MEAN_ELEMENT_THEORY":"SGP4","GP_ID":"201750345","OBJECT_TYPE":"PAYLOAD","REF_FRAME":"TEME","MEAN_ANOMALY":"310.3915","BSTAR":"0.00006047900000","FILE":"3410449","MEAN_MOTION":"15.06415967","ELEMENT_SET_NO":"999"},{"LAUNCH_DATE":"2021-03-11","MEAN_MOTION_DOT":"0.00002615","RA_OF_ASC_NODE":"137.9033","EPHEMERIS_TYPE":"0","TIME_SYSTEM":"UTC","REV_AT_EPOCH":"6285","EPOCH":"2022-04-21T13:12:34.927200","RCS_SIZE":"LARGE","INCLINATION":"53.0534","ECCENTRICITY":"0.00021450","SITE":"AFETR","PERIOD":"95.591","CENTER_NAME":"EARTH","MEAN_MOTION_DDOT":"0.0000000000000","OBJECT_ID":"2021-018BL","SEMIMAJOR_AXIS":"6925.300","GP_ID":"201774488","MEAN_MOTION":"15.06415882","FILE":"3410450","ELEMENT_SET_NO":"999","OBJECT_TYPE":"PAYLOAD","REF_FRAME":"TEME","MEAN_ANOMALY":"314.5661","BSTAR":"0.00019429000000","NORAD_CAT_ID":"47845","DECAY_DATE":null,"CLASSIFICATION_TYPE":"U","PERIAPSIS":"545.679","ARG_OF_PERICENTER":"45.5503","APOAPSIS":"548.650","MEAN_ELEMENT_THEORY":"SGP4","COUNTRY_CODE":"US","TLE_LINE2":"2 47845  53.0534 137.9033 0002145  45.5503 314.5661 15.06415882 62857","TLE_LINE1":"1 47845U 21018BL  22111.55040425  .00002615  00000-0  19429-3 0  9994","OBJECT_NAME":"STARLINK-2453"}];
